HST                     
1 20580U 90037B   20295.19153487  .00000597  00000-0  25309-4 0  9994
2 20580  28.4691 207.9871 0002654  10.3781 110.8035 15.09453776474974
POLAR                   
1 23802U 96013A   20294.45905314  .00000130  00000-0  00000-0 0  9996
2 23802  78.7088 248.2390 6207287 279.1570  19.6078  1.29846455118034
SWAS                    
1 25560U 98071A   20294.86737837  .00000197  00000-0  26963-4 0  9996
2 25560  69.8990  68.0898 0006907 174.8654 185.2574 14.93920945187977
CXO                     
1 25867U 99040B   20296.10380390  .00000740  00000-0  00000-0 0  9994
2 25867  60.1960 263.4627 7934643 226.9279   0.5599  0.37804412 20677
XMM-NEWTON              
1 25989U 99066A   20297.18987583 -.00000114  00000-0  00000-0 0  9999
2 25989  71.0622 317.6914 6934313  92.2856 359.7978  0.50131985 27026
TERRA                   
1 25994U 99068A   20295.46443495  .00000067  00000-0  24885-4 0  9992
2 25994  98.2029   7.9321 0001429  91.7743 324.9137 14.57116876108666
CLUSTER II-FM7 (SAMBA)  
1 26410U 00041A   20296.00878480  .00000081  00000-0  00000-0 0  9991
2 26410 132.1288 342.6035 4546943 186.4762   0.8980  0.44235671 22902
CLUSTER II-FM6 (SALSA)  
1 26411U 00041B   20296.09235445 -.00000044  00000-0  00000-0 0  9999
2 26411 132.3048 344.0148 5905572 191.9761   1.0134  0.44253755 22219
CLUSTER II-FM5 (RUMBA)  
1 26463U 00045A   20296.07264203  .00000033  00000-0  00000-0 0  9999
2 26463 135.9494 343.7692 5499664 191.8510   0.9782  0.44221258 23481
CLUSTER II-FM8 (TANGO)  
1 26464U 00045B   20296.00490805  .00000081  00000-0  00000+0 0  9994
2 26464 132.1359 342.6007 4547767 186.4506   0.9229  0.44219990 58823
ODIN                    
1 26702U 01007A   20295.12041072  .00000221  00000-0  18335-4 0  9999
2 26702  97.5511 309.9672 0010783 189.4484 170.6543 15.08147890 75157
TIMED                   
1 26998U 01055B   20295.30686533  .00000152  00000-0  20474-4 0  9996
2 26998  74.0740  42.6523 0000356 308.2969  51.8179 14.88223584 23170
RHESSI                  
1 27370U 02004A   20295.24978978  .00002809  00000-0  89523-4 0  9997
2 27370  38.0317 130.3946 0013373 283.3025  76.6255 15.33265301 33645
INTEGRAL                
1 27540U 02048A   20294.49853529  .00000169  00000-0  00000+0 0  9999
2 27540  57.5545 103.6568 8981339 295.0198   1.9677  0.37574654 18869
CORIOLIS                
1 27640U 03001A   20295.26474343 -.00000007  00000-0  17682-4 0  9990
2 27640  98.7270 302.7860 0014830  38.7640 331.7231 14.19049592921280
SORCE                   
1 27651U 03004A   20295.25447438  .00000154  00000-0  30053-4 0  9998
2 27651  39.9968 348.4543 0022384 186.2106 173.8408 14.89162230962959
MOST                    
1 27843U 03031D   20295.27396145 -.00000018  00000-0  11878-4 0  9995
2 27843  98.7114 300.7476 0011128  90.8551 269.3901 14.20619433897461
SCISAT 1                
1 27858U 03036A   20295.28828266  .00000068  00000-0  14523-4 0  9995
2 27858  73.9314 296.6207 0006556 120.2679 239.9145 14.77305231926238
SWIFT                   
1 28485U 04047A   20295.15724982  .00001004  00000-0  38130-4 0  9992
2 28485  20.5561 224.8388 0011069 205.9038 154.0843 15.04706916872435
FORMOSAT-3 FM6          
1 29047U 06011A   20295.22333694  .00000217  00000-0  10124-3 0  9991
2 29047  71.9790 213.2822 0051253 207.0167 152.8301 14.28755684759287
FORMOSAT-3 FM1          
1 29048U 06011B   20295.24502797  .00000072  00000-0  44701-4 0  9994
2 29048  71.9644 124.0034 0043203 165.2816 194.9590 14.28723384761778
FORMOSAT-3 FM5          
1 29049U 06011C   20295.23904098  .00000038  00000-0  31371-4 0  9995
2 29049  72.0189 296.3769 0035415 192.3815 167.6456 14.28802675757560
FORMOSAT-3 FM3          
1 29050U 06011D   20294.96177199  .00000192  00000-0  50588-4 0  9992
2 29050  72.0157  70.2046 0047916  96.7850 263.8758 14.58959813774630
FORMOSAT-3 FM4          
1 29051U 06011E   20295.16638719  .00000125  00000-0  64151-4 0  9993
2 29051  72.0060 198.3400 0066512  66.8565 293.9562 14.28837254760143
FORMOSAT-3 FM2          
1 29052U 06011F   20295.15678524  .00000064  00000-0  41252-4 0  9990
2 29052  72.0329 272.9363 0039030 150.7744 209.5588 14.28942225757654
CLOUDSAT                
1 29107U 06016A   20295.26459920  .00000108  00000-0  30814-4 0  9996
2 29107  98.2447 242.1772 0001520  56.4657 303.6689 14.62263211770716
CALIPSO                 
1 29108U 06016B   20295.26174387  .00000150  00000-0  39140-4 0  9996
2 29108  98.2430 241.9379 0001340  84.2616 275.8738 14.62450458770708
HINODE (SOLAR-B)        
1 29479U 06041A   20295.02049456  .00000049  00000-0  18214-4 0  9993
2 29479  98.1585 305.8254 0016550 337.7207  22.3275 14.65092163752273
SJ-6C                   
1 29505U 06046A   20295.36381183 -.00000175  00000-0 -10714-4 0  9990
2 29505  97.8144 308.6389 0004477 354.6791   5.4381 14.94933890762422
SJ-6D                   
1 29506U 06046B   20295.49291074 -.00000543  00000-0 -46107-4 0  9998
2 29506  97.8342 308.9292 0003520  71.1022 289.0572 14.93537137761980
AGILE                   
1 31135U 07013A   20295.42476653  .00003110  00000-0  60043-4 0  9991
2 31135   2.4676 288.7674 0011805 344.6203  15.3492 15.32616989751400
AIM                     
1 31304U 07015A   20295.23701836  .00001106  00000-0  65240-4 0  9991
2 31304  97.8883 182.6050 0003800 298.7833  61.3016 15.13781550739719
FGRST (GLAST)           
1 33053U 08029A   20294.75733075  .00000593  00000-0  17158-4 0  9990
2 33053  25.5835 327.0361 0012463  19.5900 340.5113 15.11385280682317
WISE                    
1 36119U 09071A   20295.09203792  .00000971  00000-0  35663-4 0  9991
2 36119  97.3160 329.6074 0001272 337.6632  22.4554 15.30293619603012
SDO                     
1 36395U 10005A   20295.09931973 -.00000059  00000-0  00000-0 0  9996
2 36395  30.5342 119.1880 0000647  19.5506 185.4090  1.00273525 39358
CRYOSAT 2               
1 36508U 10013A   20295.24061679  .00000093  00000-0  22299-4 0  9990
2 36508  92.0186 138.2012 0007630 128.7369 231.4521 14.51906176558522
X-SAT                   
1 37389U 11015C   20295.39803310 -.00000007  00000-0  15214-4 0  9998
2 37389  98.4205 345.6413 0012953 283.1458  76.8278 14.24383429494215
GCOM-W1 (SHIZUKU)       
1 38337U 12025A   20295.49532417  .00000074  00000-0  26475-4 0  9996
2 38337  98.2006 233.6454 0000769   5.9206 121.2474 14.57115140448356
NUSTAR                  
1 38358U 12031A   20294.96420159  .00001044  00000-0  35278-4 0  9995
2 38358   6.0269  77.2722 0012441 260.7875  99.0846 14.88360231454742
NEOSSAT                 
1 39089U 13009D   20295.17237288  .00000035  00000-0  27539-4 0  9996
2 39089  98.4573 134.4563 0010145 275.0588  84.9439 14.34528177400574
IRIS                    
1 39197U 13033A   20295.06088074  .00000135  00000-0  25416-4 0  9991
2 39197  97.9614 115.8037 0027566 181.0380 179.0779 14.78762060394646
HISAKI (SPRINT-A)       
1 39253U 13049A   20295.25574995  .00000098  00000-0  42685-4 0  9999
2 39253  29.7200 275.0067 0137206 201.0485 158.4397 13.55230708351088
CASSIOPE                
1 39265U 13055A   20295.21511454  .00003493  00000-0  99214-4 0  9998
2 39265  80.9694 182.9012 0656679 295.1792  58.2680 14.30172944365772
STSAT-3                 
1 39422U 13066G   20295.03701090  .00000489  00000-0  56069-4 0  9995
2 39422  97.5013 321.4482 0024380 133.4493 226.8791 14.89867723375831
SWARM B                 
1 39451U 13067A   20295.19434993  .00000492  00000-0  20096-4 0  9995
2 39451  87.7537 242.1377 0004124  91.0605 269.1113 15.21806164369082
SWARM A                 
1 39452U 13067B   20295.20133231  .00001724  00000-0  35886-4 0  9991
2 39452  87.3578  84.9254 0002058  92.6519 267.4975 15.44794106388596
SWARM C                 
1 39453U 13067C   20295.20123577  .00001736  00000-0  36125-4 0  9994
2 39453  87.3430  85.6278 0002056  92.5807 267.5686 15.44794732388556
BRITE-CA1 (TORONTO)     
1 40020U 14033L   20295.48964068  .00000058  00000-0  18081-4 0  9995
2 40020  97.7319 116.5001 0088125  31.2972 329.3436 14.66666448339248
OCO 2                   
1 40059U 14035A   20295.19347103  .00000046  00000-0  20315-4 0  9992
2 40059  98.2006 234.0775 0001154  88.1045 272.0286 14.57119060335338
BRITE-PL2 (HEWELIUSZ)   
1 40119U 14049B   20295.22835018  .00000163  00000-0  25664-4 0  9997
2 40119  97.8941  26.2047 0018609  60.7258 299.5813 14.84543790334448
RESURS P2               
1 40360U 14087A   20295.49013328  .00000764  00000-0  25735-4 0  9994
2 40360  97.2426  21.8300 0011159  92.7370 277.7728 15.33709443325632
MMS 1                   
1 40482U 15011A   20288.04166667 -.00000137  00000-0  00000-0 0  9994
2 40482  30.6093 119.3989 8526613  24.8023  60.5588  0.28543087 11552
MMS 2                   
1 40483U 15011B   20288.04166667 -.00000137  00000-0  00000-0 0  9995
2 40483  30.6089 119.4114 8526062  24.7890  60.5700  0.28543207 11536
MMS 3                   
1 40484U 15011C   20288.04166667 -.00000137  00000-0  00000-0 0  9996
2 40484  30.6053 119.4049 8526696  24.7919  60.5758  0.28540150 11537
MMS 4                   
1 40485U 15011D   20288.04166667 -.00000137  00000-0  00000-0 0  9997
2 40485  30.6095 119.4116 8527401  24.7893  60.5663  0.28543162 11536
ASTROSAT                
1 40930U 15052A   20295.02144851  .00000763  00000-0  18007-4 0  9998
2 40930   5.9958 167.2749 0009169 245.9043 114.0125 14.76338189273806
DAMPE                   
1 41173U 15078A   20295.45441916  .00000080  00000-0  61966-5 0  9990
2 41173  97.3333 286.6085 0014124 160.8083 351.2676 15.23907974269586
PISAT                   
1 41784U 16059B   20295.16001534  .00000095  00000-0  27336-4 0  9992
2 41784  98.0040 348.1459 0030604 277.4644  82.3082 14.63546240217297
HXMT (HUIYAN)           
1 42758U 17034A   20295.23404911  .00000204  00000-0  26390-4 0  9993
2 42758  43.0186  65.9334 0008827  95.1528 333.2893 15.08918717184871
FLYING LAPTOP           
1 42831U 17042G   20295.08183413  .00000414  00000-0  46930-4 0  9993
2 42831  97.5001 170.9905 0012902 221.8931 138.1316 14.91169808178010
PICSAT                  
1 43132U 18004X   20295.20214424  .00001905  00000-0  79814-4 0  9991
2 43132  97.4362   5.7184 0008734 341.0333  19.0578 15.24733502154215
ZHANGZHENG-1 (CSES)     
1 43194U 18015C   20295.50275558  .00001080  00000-0  51699-4 0  9994
2 43194  97.4521  59.0558 0015504  30.8146  39.2642 15.21013600150821
ICON                    
1 44628U 19068A   20295.19916695  .00000605  00000-0  38819-4 0  9996
2 44628  26.9903 293.1248 0018565 255.9426 103.9068 14.91753149 56228
SALSAT                  
1 46495U 20068K   20295.24541581  .00000089  00000-0  11088-4 0  9991
2 46495  97.6652 228.5197 0016979 158.3374 201.8600 15.03213325  3399
